$$SOE
2461295.500000000, A.D. 2026-Sep-12 00:00:00.0000, -2.229195659773168E+08, 4.609087351338053E+08, -3.126938277858904E+07,
2461302.500000000, A.D. 2026-Sep-19 00:00:00.0000, -2.317940760074551E+08, 4.581954851330474E+08, -3.151883735845402E+07,
2461309.500000000, A.D. 2026-Sep-26 00:00:00.0000, -2.405863181823654E+08, 4.553190351238084E+08, -3.175699725689557E+07,
2461316.500000000, A.D. 2026-Oct-03 00:00:00.0000, -2.492939101960736E+08, 4.522818195296403E+08, -3.198387329703021E+07,
2461323.500000000, A.D. 2026-Oct-10 00:00:00.0000, -2.579145338644682E+08, 4.490862759237102E+08, -3.219947921949154E+07,
2461330.500000000, A.D. 2026-Oct-17 00:00:00.0000, -2.664459335062543E+08, 4.457348440972737E+08, -3.240383156233478E+07,
2461337.500000000, A.D. 2026-Oct-24 00:00:00.0000, -2.748859143651854E+08, 4.422299651077321E+08, -3.259694955383767E+07,
2461344.500000000, A.D. 2026-Oct-31 00:00:00.0000, -2.832323409757917E+08, 4.385740802357984E+08, -3.277885503244509E+07,
2461351.500000000, A.D. 2026-Nov-07 00:00:00.0000, -2.914831351344414E+08, 4.347696299221358E+08, -3.294957241859472E+07,
2461358.500000000, A.D. 2026-Nov-14 00:00:00.0000, -2.996362732758942E+08, 4.308190535674045E+08, -3.310912868401609E+07,
2461365.500000000, A.D. 2026-Nov-21 00:00:00.0000, -3.076897850683236E+08, 4.267247908749708E+08, -3.325755309643136E+07,
2461372.500000000, A.D. 2026-Nov-28 00:00:00.0000, -3.156417542249709E+08, 4.224892817260190E+08, -3.339487689370668E+07,
2461379.500000000, A.D. 2026-Dec-05 00:00:00.0000, -3.234903179120328E+08, 4.181149639268425E+08, -3.352113327239491E+07,
2461386.500000000, A.D. 2026-Dec-12 00:00:00.0000, -3.312336645885935E+08, 4.136042719357293E+08, -3.363635745104824E+07,
2461393.500000000, A.D. 2026-Dec-19 00:00:00.0000, -3.388700321663728E+08, 4.089596365740941E+08, -3.374058663451202E+07,
2461400.500000000, A.D. 2026-Dec-26 00:00:00.0000, -3.463977066308409E+08, 4.041834848514177E+08, -3.383385993669257E+07,
2461407.500000000, A.D. 2027-Jan-02 00:00:00.0000, -3.538150208471509E+08, 3.992782397096679E+08, -3.391621830216123E+07,
2461414.500000000, A.D. 2027-Jan-09 00:00:00.0000, -3.611203534341784E+08, 3.942463197037690E+08, -3.398770443518788E+07,
2461421.500000000, A.D. 2027-Jan-16 00:00:00.0000, -3.683121276726073E+08, 3.890901386237661E+08, -3.404836273840608E+07,
2461428.500000000, A.D. 2027-Jan-23 00:00:00.0000, -3.753888104029709E+08, 3.838121050166247E+08, -3.409823926843546E+07,
2461435.500000000, A.D. 2027-Jan-30 00:00:00.0000, -3.823489107278061E+08, 3.784146215580543E+08, -3.413738172957967E+07,
2461442.500000000, A.D. 2027-Feb-06 00:00:00.0000, -3.891909780946913E+08, 3.729000846127070E+08, -3.416583951679553E+07,
2461449.500000000, A.D. 2027-Feb-13 00:00:00.0000, -3.959136002218575E+08, 3.672708852006852E+08, -3.418366366609298E+07,
2461456.500000000, A.D. 2027-Feb-20 00:00:00.0000, -4.025154032316138E+08, 3.615294105780938E+08, -3.419090656038807E+07,
2461463.500000000, A.D. 2027-Feb-27 00:00:00.0000, -4.089950525956333E+08, 3.556780432167436E+08, -3.418762178151719E+07,
2461470.500000000, A.D. 2027-Mar-06 00:00:00.0000, -4.153512518731827E+08, 3.497191591028981E+08, -3.417386422784115E+07,
2461477.500000000, A.D. 2027-Mar-13 00:00:00.0000, -4.215827408432236E+08, 3.436551274022939E+08, -3.414969018321039E+07,
2461484.500000000, A.D. 2027-Mar-20 00:00:00.0000, -4.276882941604930E+08, 3.374883106560844E+08, -3.411515730216035E+07,
2461491.500000000, A.D. 2027-Mar-27 00:00:00.0000, -4.336667203332190E+08, 3.312210649580826E+08, -3.407032457479401E+07,
2461498.500000000, A.D. 2027-Apr-03 00:00:00.0000, -4.395168608189489E+08, 3.248557400645319E+08, -3.401525229380378E+07,
2461505.500000000, A.D. 2027-Apr-10 00:00:00.0000, -4.452375891766677E+08, 3.183946794583839E+08, -3.395000202727617E+07,
2461512.500000000, A.D. 2027-Apr-17 00:00:00.0000, -4.508278102525797E+08, 3.118402203527508E+08, -3.387463660037200E+07,
2461519.500000000, A.D. 2027-Apr-24 00:00:00.0000, -4.562864593197661E+08, 3.051946935703896E+08, -3.378922009810662E+07,
2461526.500000000, A.D. 2027-May-01 00:00:00.0000, -4.616125008714679E+08, 2.984604233260452E+08, -3.369381791429357E+07,
2461533.500000000, A.D. 2027-May-08 00:00:00.0000, -4.668049267600166E+08, 2.916397276589866E+08, -3.358849681352665E+07,
2461540.500000000, A.D. 2027-May-15 00:00:00.0000, -4.718627551781572E+08, 2.847349204682121E+08, -3.347332479090995E+07,
2461547.500000000, A.D. 2027-May-22 00:00:00.0000, -4.767850320468158E+08, 2.777483125585085E+08, -3.334837079793853E+07,
2461554.500000000, A.D. 2027-May-29 00:00:00.0000, -4.815708314523249E+08, 2.706822102289574E+08, -3.321370476210737E+07,
2461561.500000000, A.D. 2027-Jun-05 00:00:00.0000, -4.862192542468281E+08, 2.635389145342124E+08, -3.306939772504821E+07,
2461568.500000000, A.D. 2027-Jun-12 00:00:00.0000, -4.907294268194467E+08, 2.563207216491562E+08, -3.291552187964845E+07,
2461575.500000000, A.D. 2027-Jun-19 00:00:00.0000, -4.951005003694658E+08, 2.490299234017138E+08, -3.275215055215707E+07,
2461582.500000000, A.D. 2027-Jun-26 00:00:00.0000, -4.993316504017371E+08, 2.416688077123038E+08, -3.257935817606813E+07,
2461589.500000000, A.D. 2027-Jul-03 00:00:00.0000, -5.034220763116409E+08, 2.342396589477588E+08, -3.239722026895184E+07,
2461596.500000000, A.D. 2027-Jul-10 00:00:00.0000, -5.073710010223529E+08, 2.267447581979218E+08, -3.220581341462834E+07,
2461603.500000000, A.D. 2027-Jul-17 00:00:00.0000, -5.111776706377540E+08, 2.191863834355913E+08, -3.200521525693564E+07,
2461610.500000000, A.D. 2027-Jul-24 00:00:00.0000, -5.148413539542786E+08, 2.115668094966269E+08, -3.179550452433717E+07,
2461617.500000000, A.D. 2027-Jul-31 00:00:00.0000, -5.183613414199452E+08, 2.038883081153898E+08, -3.157676110364137E+07,
2461624.500000000, A.D. 2027-Aug-07 00:00:00.0000, -5.217369437409430E+08, 1.961531491668593E+08, -3.134906605014112E+07,
2461631.500000000, A.D. 2027-Aug-14 00:00:00.0000, -5.249674924369549E+08, 1.883636028618742E+08, -3.111250134381635E+07,
2461638.500000000, A.D. 2027-Aug-21 00:00:00.0000, -5.280523417269962E+08, 1.805219395317598E+08, -3.086714972332118E+07,
2461645.500000000, A.D. 2027-Aug-28 00:00:00.0000, -5.309908683130789E+08, 1.726304282057700E+08, -3.061309481394610E+07,
2461652.500000000, A.D. 2027-Sep-04 00:00:00.0000, -5.337824702409670E+08, 1.646913364824278E+08, -3.035042123656271E+07,
2461659.500000000, A.D. 2027-Sep-11 00:00:00.0000, -5.364265662330242E+08, 1.567069310320637E+08, -3.007921462381319E+07,
2461666.500000000, A.D. 2027-Sep-18 00:00:00.0000, -5.389225953603691E+08, 1.486794780797055E+08, -2.979956160926394E+07,
2461673.500000000, A.D. 2027-Sep-25 00:00:00.0000, -5.412700168259392E+08, 1.406112437904917E+08, -2.951154981725710E+07,
2461680.500000000, A.D. 2027-Oct-02 00:00:00.0000, -5.434683097838824E+08, 1.325044945853284E+08, -2.921526785850326E+07,
2461687.500000000, A.D. 2027-Oct-09 00:00:00.0000, -5.455169731731206E+08, 1.243614973827388E+08, -2.891080533423207E+07,
2461694.500000000, A.D. 2027-Oct-16 00:00:00.0000, -5.474155255018997E+08, 1.161845197125788E+08, -2.859825285948896E+07,
2461701.500000000, A.D. 2027-Oct-23 00:00:00.0000, -5.491635043231049E+08, 1.079758296963637E+08, -2.827770213009244E+07,
2461708.500000000, A.D. 2027-Oct-30 00:00:00.0000, -5.507604650250527E+08, 9.973769650470275E+07, -2.794924601786114E+07,
2461715.500000000, A.D. 2027-Nov-06 00:00:00.0000, -5.522059801007175E+08, 9.147239241976893E+07, -2.761297849529886E+07,
2461722.500000000, A.D. 2027-Nov-13 00:00:00.0000, -5.534996408811436E+08, 8.318219442631747E+07, -2.726899437748871E+07,
2461729.500000000, A.D. 2027-Nov-20 00:00:00.0000, -5.546410588316312E+08, 7.486938314572439E+07, -2.691738932609007E+07,
2461736.500000000, A.D. 2027-Nov-27 00:00:00.0000, -5.556298647923061E+08, 6.653624207774348E+07, -2.655826002136524E+07,
2461743.500000000, A.D. 2027-Dec-04 00:00:00.0000, -5.564657081858763E+08, 5.818505806319201E+07, -2.619170424181749E+07,
2461750.500000000, A.D. 2027-Dec-11 00:00:00.0000, -5.571482567435451E+08, 4.981812200293438E+07, -2.581782087976483E+07,
2461757.500000000, A.D. 2027-Dec-18 00:00:00.0000, -5.576771964747046E+08, 4.143772949394338E+07, -2.543670994580397E+07,
2461764.500000000, A.D. 2027-Dec-25 00:00:00.0000, -5.580522317286990E+08, 3.304618138029625E+07, -2.504847257621857E+07,
2461771.500000000, A.D. 2028-Jan-01 00:00:00.0000, -5.582730853073645E+08, 2.464578423360350E+07, -2.465321104582677E+07,
$$EOE